STARLINK-1286           
1 45417U 20019BK  26068.54178768  .00034513  00000+0  59203-3 0  9998
2 45417  53.0480 131.4333 0003188  60.0425 300.0899 15.50880462330204
FLOCK 4Q-26             
1 58284U 23174AE  26068.73049739  .00032914  00000+0  56917-3 0  9997
2 58284  97.3894 158.0869 0007335 149.9195 210.2479 15.50866575130380
