[{"OBJECT_NAME":"STARLINK-1286","OBJECT_ID":"2020-019BK","EPOCH":"2026-03-09T13:00:10.455552","MEAN_MOTION":15.50880462,"ECCENTRICITY":0.00031881,"INCLINATION":53.048,"RA_OF_ASC_NODE":131.4333,"ARG_OF_PERICENTER":60.0425,"MEAN_ANOMALY":300.0899,"EPHEMERIS_TYPE":0,"CLASSIFICATION_TYPE":"U","NORAD_CAT_ID":45417,"ELEMENT_SET_NO":999,"REV_AT_EPOCH":33020,"BSTAR":0.00059203243,"MEAN_MOTION_DOT":0.00034513,"MEAN_MOTION_DDOT":0},{"OBJECT_NAME":"FLOCK 4Q-26","OBJECT_ID":"2023-174AE","EPOCH":"2026-03-09T17:31:54.974496","MEAN_MOTION":15.50866575,"ECCENTRICITY":0.00073348,"INCLINATION":97.3894,"RA_OF_ASC_NODE":158.0869,"ARG_OF_PERICENTER":149.9195,"MEAN_ANOMALY":210.2479,"EPHEMERIS_TYPE":0,"CLASSIFICATION_TYPE":"U","NORAD_CAT_ID":58284,"ELEMENT_SET_NO":999,"REV_AT_EPOCH":13038,"BSTAR":0.00056917098,"MEAN_MOTION_DOT":0.00032914,"MEAN_MOTION_DDOT":0}]
